SARSAT 3 (NOAA 10)      
1 16969U 86073A   02071.94449082  .00000941  00000-0  40645-3 0  2488
2 16969  98.7031  62.3140 0012715  10.5714 349.5730 14.26789961805042
